{
  "links" : {
    "next" : "https://api.nasa.gov/neo/rest/v1/feed?start_date=1996-12-23&end_date=1996-12-23&detailed=true&api_key=t0TVs3DtDT2H8Oy2Zy8m2eVrNsAVKAexjcZXUckd",
    "prev" : "https://api.nasa.gov/neo/rest/v1/feed?start_date=1996-12-21&end_date=1996-12-21&detailed=true&api_key=t0TVs3DtDT2H8Oy2Zy8m2eVrNsAVKAexjcZXUckd",
    "self" : "https://api.nasa.gov/neo/rest/v1/feed?start_date=1996-12-22&end_date=1996-12-22&detailed=true&api_key=t0TVs3DtDT2H8Oy2Zy8m2eVrNsAVKAexjcZXUckd"
  },
  "element_count" : 5,
  "near_earth_objects" : {
    "1996-12-22" : [ {
      "links" : {
        "self" : "https://api.nasa.gov/neo/rest/v1/neo/2026379?api_key=t0TVs3DtDT2H8Oy2Zy8m2eVrNsAVKAexjcZXUckd"
      },
      "neo_reference_id" : "2026379",
      "name" : "26379 (1999 HZ1)",
      "nasa_jpl_url" : "http://ssd.jpl.nasa.gov/sbdb.cgi?sstr=2026379",
      "absolute_magnitude_h" : 18.0,
      "estimated_diameter" : {
        "kilometers" : {
          "estimated_diameter_min" : 0.6676594135,
          "estimated_diameter_max" : 1.4929318344
        },
        "meters" : {
          "estimated_diameter_min" : 667.6594134952,
          "estimated_diameter_max" : 1492.931834393
        },
        "miles" : {
          "estimated_diameter_min" : 0.4148641974,
          "estimated_diameter_max" : 0.9276645469
        },
        "feet" : {
          "estimated_diameter_min" : 2190.4837101717,
          "estimated_diameter_max" : 4898.07047955
        }
      },
      "is_potentially_hazardous_asteroid" : false,
      "close_approach_data" : [ {
        "close_approach_date" : "1996-12-22",
        "epoch_date_close_approach" : 851241600000,
        "relative_velocity" : {
          "kilometers_per_second" : "15.9786985802",
          "kilometers_per_hour" : "57523.3148886188",
          "miles_per_hour" : "35742.7508539865"
        },
        "miss_distance" : {
          "astronomical" : "0.3059824313",
          "lunar" : "119.0271682739",
          "kilometers" : "45774320",
          "miles" : "28442846"
        },
        "orbiting_body" : "Earth"
      } ],
      "orbital_data" : {
        "orbit_id" : "24",
        "orbit_determination_date" : "2017-04-06 09:29:25",
        "orbit_uncertainty" : "1",
        "minimum_orbit_intersection" : ".130923",
        "jupiter_tisserand_invariant" : "4.138",
        "epoch_osculation" : "2458000.5",
        "eccentricity" : ".5761002929414842",
        "semi_major_axis" : "1.60590389146398",
        "inclination" : "8.687526232681218",
        "ascending_node_longitude" : "252.1747601972048",
        "orbital_period" : "743.3233108310145",
        "perihelion_distance" : ".6807421891557118",
        "perihelion_argument" : "200.4821423591439",
        "aphelion_distance" : "2.531065593772249",
        "perihelion_time" : "2457874.849306469187",
        "mean_anomaly" : "60.85407118542017",
        "mean_motion" : ".4843114627974335",
        "equinox" : "J2000"
      }
    }, {
      "links" : {
        "self" : "https://api.nasa.gov/neo/rest/v1/neo/2376848?api_key=t0TVs3DtDT2H8Oy2Zy8m2eVrNsAVKAexjcZXUckd"
      },
      "neo_reference_id" : "2376848",
      "name" : "376848 (2001 RY47)",
      "nasa_jpl_url" : "http://ssd.jpl.nasa.gov/sbdb.cgi?sstr=2376848",
      "absolute_magnitude_h" : 19.4,
      "estimated_diameter" : {
        "kilometers" : {
          "estimated_diameter_min" : 0.3503926411,
          "estimated_diameter_max" : 0.7835017643
        },
        "meters" : {
          "estimated_diameter_min" : 350.3926411083,
          "estimated_diameter_max" : 783.5017643338
        },
        "miles" : {
          "estimated_diameter_min" : 0.2177238258,
          "estimated_diameter_max" : 0.4868452748
        },
        "feet" : {
          "estimated_diameter_min" : 1149.5821926537,
          "estimated_diameter_max" : 2570.543928497
        }
      },
      "is_potentially_hazardous_asteroid" : false,
      "close_approach_data" : [ {
        "close_approach_date" : "1996-12-22",
        "epoch_date_close_approach" : 851241600000,
        "relative_velocity" : {
          "kilometers_per_second" : "23.36561961",
          "kilometers_per_hour" : "84116.2305961289",
          "miles_per_hour" : "52266.5545056891"
        },
        "miss_distance" : {
          "astronomical" : "0.4626777229",
          "lunar" : "179.981628418",
          "kilometers" : "69215600",
          "miles" : "43008580"
        },
        "orbiting_body" : "Earth"
      } ],
      "orbital_data" : {
        "orbit_id" : "51",
        "orbit_determination_date" : "2017-04-06 09:22:24",
        "orbit_uncertainty" : "0",
        "minimum_orbit_intersection" : ".0820877",
        "jupiter_tisserand_invariant" : "6.471",
        "epoch_osculation" : "2458000.5",
        "eccentricity" : ".3929355368558013",
        "semi_major_axis" : ".9065883406947874",
        "inclination" : "17.60841650254292",
        "ascending_node_longitude" : "11.23223677745374",
        "orbital_period" : "315.292486157051",
        "perihelion_distance" : ".550357564336671",
        "perihelion_argument" : "214.0341513920518",
        "aphelion_distance" : "1.262819117052904",
        "perihelion_time" : "2458064.811320453254",
        "mean_anomaly" : "286.5695302626431",
        "mean_motion" : "1.141796953006611",
        "equinox" : "J2000"
      }
    }, {
      "links" : {
        "self" : "https://api.nasa.gov/neo/rest/v1/neo/3597095?api_key=t0TVs3DtDT2H8Oy2Zy8m2eVrNsAVKAexjcZXUckd"
      },
      "neo_reference_id" : "3597095",
      "name" : "(2012 BB124)",
      "nasa_jpl_url" : "http://ssd.jpl.nasa.gov/sbdb.cgi?sstr=3597095",
      "absolute_magnitude_h" : 21.2,
      "estimated_diameter" : {
        "kilometers" : {
          "estimated_diameter_min" : 0.1529519353,
          "estimated_diameter_max" : 0.3420109247
        },
        "meters" : {
          "estimated_diameter_min" : 152.9519353442,
          "estimated_diameter_max" : 342.0109247198
        },
        "miles" : {
          "estimated_diameter_min" : 0.095039897,
          "estimated_diameter_max" : 0.2125156703
        },
        "feet" : {
          "estimated_diameter_min" : 501.8108275547,
          "estimated_diameter_max" : 1122.0831222578
        }
      },
      "is_potentially_hazardous_asteroid" : true,
      "close_approach_data" : [ {
        "close_approach_date" : "1996-12-22",
        "epoch_date_close_approach" : 851241600000,
        "relative_velocity" : {
          "kilometers_per_second" : "9.2534155721",
          "kilometers_per_hour" : "33312.296059381",
          "miles_per_hour" : "20698.9652931193"
        },
        "miss_distance" : {
          "astronomical" : "0.4858591319",
          "lunar" : "188.999206543",
          "kilometers" : "72683488",
          "miles" : "45163428"
        },
        "orbiting_body" : "Earth"
      } ],
      "orbital_data" : {
        "orbit_id" : "38",
        "orbit_determination_date" : "2017-09-01 06:19:40",
        "orbit_uncertainty" : "0",
        "minimum_orbit_intersection" : ".0192598",
        "jupiter_tisserand_invariant" : "5.392",
        "epoch_osculation" : "2456815.5",
        "eccentricity" : ".2109974951974868",
        "semi_major_axis" : "1.154886202244677",
        "inclination" : "15.78898262884922",
        "ascending_node_longitude" : "137.6927439300177",
        "orbital_period" : "453.3224382166687",
        "perihelion_distance" : ".9112081063329123",
        "perihelion_argument" : "122.7364637450355",
        "aphelion_distance" : "1.398564298156443",
        "perihelion_time" : "2456997.902778851146",
        "mean_anomaly" : "215.1472531456131",
        "mean_motion" : ".7941367328213642",
        "equinox" : "J2000"
      }
    } ]
  }
}